C/2021 D1 (SWAN),e,31.4266,311.2800,72.2609,100.9182,0.0009722,0.99105114,0.0000,02/27.7663/2021,2000,g 13.0,4.0
# From MPEC 2023-J29
C/2021 D2 (ZTF),h,02/03.9685/2022,83.8060,305.6715,125.0265,1.001664,2.946242,2000,9.0,4.0
# From MPEC 2022-UY9
A/2021 E2,e,167.4886,190.8147,342.3512,219.8550,0.0003023,0.98961295,0.0000,12/10.2625/2020,2000,g 15.0,2.0
# From MPEC 2023-J29
C/2021 E3 (ZTF),h,06/11.8740/2022,112.5420,104.4801,228.8446,1.000753,1.777242,2000,8.5,4.0
# From MPEC 2023-SQ0
A/2021 E4,e,116.3614,171.1680,48.2618,561.3284,0.0000741,0.99166932,0.0000,04/25.1094/2022,2000,g 13.5,22.0
# From MPEC 2022-QD9
C/2021 F1 (Lemmon-PANSTARRS),e,7.3193,203.4581,146.8549,240.1790,0.0002648,0.99585148,0.0000,04/06.8329/2022,2000,g 13.5,4.0
# From MPEC 2021-J72
C/2021 G1 (Leonard),e,131.5464,270.6980,107.4460,73.42528,0.0015665,0.95337216,1.2629,10/06.0/2023,2000,g 14.0,4.0
# From MPEC 2023-OA6
C/2021 G2 (ATLAS),e,48.4750,221.0935,343.3084,11438,0.0000008,0.99956445,0.0000,09/09.4642/2024,2000,g  5.5,4.0
# From MPEC 2022-X67
C/2021 G3 (PANSTARRS),e,102.8716,147.3980,10.5877,38529,0.0000001,0.99986556,0.0000,10/18.0319/2021,2000,g 10.5,4.0
# From MPEC 2021-Y10
P/2021 HS (PANSTARRS),e,12.1593,262.3733,46.1326,4.194640,0.1147260,0.80971532,90.7367,10/06.0/2023,2000,g 22.0,4.0
# From MPEC 2022-C56
C/2021 J1 (Maury-Attard),e,92.7183,88.3856,147.3096,26.35508,0.0072846,0.93397534,6.9833,10/06.0/2023,2000,g 15.5,4.0
# From MPEC 2023-KD6
C/2021 J2 (PANSTARRS),e,156.2133,23.3359,171.9957,116.7295,0.0007815,0.95970221,0.5814,10/06.0/2023,2000,g 12.0,4.0
# From MPEC 2021-S45
P/2021 J3 (ATLAS),e,14.5300,111.1229,125.9585,8.923514,0.0369743,0.44906592,57.5257,10/06.0/2023,2000,g  7.0,4.0
# From MPEC 2022-O08
C/2021 K1 (ATLAS),e,16.2748,140.9094,184.2792,12.66114,0.0218774,0.80258225,19.3604,10/06.0/2023,2000,g 11.0,4.0
# From MPEC 2022-O01
C/2021 K2 (MASTER),h,09/09.7412/2021,0.8415,282.2037,343.4458,1.000880,5.469458,2000,8.0,4.0
# From MPEC 2022-L66
C/2021 K3 (Catalina),h,02/03.8383/2022,34.7653,114.5525,182.0540,1.003374,5.233205,2000,10.0,4.0
# From MPEC 2021-W31
P/2021 L2 (Leonard),e,21.0664,266.6558,51.5094,4.048867,0.1209773,0.52098384,97.2528,10/06.0/2023,2000,g 17.0,4.0
# From MPEC 2023-M14
C/2021 L3 (Borisov),h,02/14.3456/2022,78.5732,344.9845,91.6200,1.003991,8.458197,2000,10.1,4.0
# From MPEC 2022-TA0
P/2021 N1 (ZTF),e,11.4938,301.1581,21.2345,2.978307,0.1917564,0.67621733,163.3179,10/06.0/2023,2000,g 19.0,4.0
# From MPEC 2023-M14
P/2021 N2 (Fuls),e,13.0612,221.7318,177.4913,6.940290,0.0539061,0.45262296,37.2452,10/06.0/2023,2000,g 10.8,4.0
# From MPEC 2022-YB4
C/2021 N3 (PANSTARRS),e,26.7428,337.4951,304.7519,149.2728,0.0005404,0.96169772,0.6177,10/06.0/2023,2000,g  8.5,4.0
# From MPEC 2022-A21
C/2021 O1 (Nishimura),e,27.5972,41.5983,74.4028,2429,0.0000082,0.99967697,0.0000,08/14.1021/2021,2000,g 10.5,4.0
# From MPEC 2022-L66
C/2021 O3 (PANSTARRS),h,04/21.0654/2022,56.7949,189.0037,299.9564,1.000049,0.286652,2000,10.5,4.0
# From MPEC 2022-CN4
C/2021 P1 (PANSTARRS),e,51.6395,359.6972,40.4598,2270,0.0000091,0.99807285,0.0000,06/02.4551/2022,2000,g 11.0,4.0
# From MPEC 2023-R20
C/2021 P2 (PANSTARRS),e,150.0635,32.0797,76.7078,3207,0.0000054,0.99841940,0.0000,01/22.8635/2023,2000,g  9.0,4.0
# From MPEC 2021-W31
P/2021 P3 (PANSTARRS),e,27.1616,358.2402,334.0965,4.412445,0.1063372,0.33892815,91.3441,10/06.0/2023,2000,g 14.0,4.0
# From MPEC 2023-A50
C/2021 P4 (ATLAS),e,56.3140,348.0848,175.8008,302.8222,0.0001870,0.99643342,0.0000,07/30.3404/2022,2000,g  9.5,4.0
# From MPEC 2023-E68
P/2021 PE20 (ATLAS),e,20.0054,99.6297,210.4714,3.745878,0.1359482,0.67017939,115.7170,10/06.0/2023,2000,g 17.0,4.0
# From MPEC 2023-FK0
C/2021 Q3 (ATLAS),e,77.7525,307.9147,114.1068,75.71420,0.0014960,0.93125404,0.9241,10/06.0/2023,2000,g  8.0,4.0
# From MPEC 2023-SQ0
C/2021 Q4 (Fuls),h,06/10.9740/2023,71.4766,183.3312,147.0346,1.003104,7.564797,2000,6.0,4.0
# From MPEC 2022-C56
P/2021 Q5 (ATLAS),e,10.7382,239.7587,180.9193,3.286715,0.1654097,0.62462742,126.7520,10/06.0/2023,2000,g 15.0,4.0
# From MPEC 2023-SQ0
C/2021 Q6 (PANSTARRS),h,03/24.5707/2024,161.8470,133.5360,140.9951,1.000186,8.708024,2000,6.0,4.0
# From MPEC 2023-FK0
C/2021 QM45 (PANSTARRS),e,22.8205,354.5929,72.8335,375.4120,0.0001355,0.99261120,0.0000,08/13.5571/2022,2000,g 11.0,4.0
# From MPEC 2022-X67
P/2021 R1 (PANSTARRS),e,5.5195,143.3005,220.3119,8.321333,0.0410596,0.41283682,27.0698,10/06.0/2023,2000,g 11.0,4.0
# From MPEC 2022-X67
C/2021 R2 (PANSTARRS),e,134.4824,16.2989,32.4692,2986,0.0000060,0.99755051,0.0000,12/27.2647/2021,2000,g  7.5,4.0
# From MPEC 2021-W31
P/2021 R3 (PANSTARRS),e,19.9302,304.1977,2.7499,3.771820,0.1345481,0.33103285,116.1465,10/06.0/2023,2000,g 16.0,4.0
# From MPEC 2021-W31
P/2021 R4 (Wierzchos),e,21.0326,321.2973,56.6787,5.623461,0.0739092,0.58597038,53.3568,10/06.0/2023,2000,g 16.0,4.0
# From MPEC 2022-Y15
P/2021 R5 (Rankin),e,7.8545,219.9543,167.4837,4.794643,0.0938793,0.30663849,59.2753,10/06.0/2023,2000,g 12.0,4.0
# From MPEC 2021-W31
P/2021 R6 (Groeller),e,34.9231,176.1551,220.7811,6.282188,0.0625947,0.59343421,44.0569,10/06.0/2023,2000,g 14.5,4.0
# From MPEC 2022-X67
C/2021 R7 (PANSTARRS),e,158.8576,170.1575,140.2859,858.5924,0.0000392,0.99341864,0.0000,04/16.5053/2021,2000,g 10.5,4.0
# From MPEC 2021-Y10
P/2021 R8 (Sheppard),e,2.2034,167.0741,190.8132,3.018347,0.1879535,0.29331226,136.9246,10/06.0/2023,2000,g 18.5,4.0
# From MPEC 2023-J29
C/2021 S1 (ATLAS),h,03/01.2585/2022,52.0638,299.8757,148.2090,1.002286,6.119752,2000,7.0,4.0
# From MPEC 2023-SQ0
C/2021 S3 (PANSTARRS),h,02/14.7153/2024,58.5335,215.6207,6.8608,1.000210,1.320149,2000,5.5,4.0
# From MPEC 2023-SQ0
C/2021 S4 (Tsuchinshan),e,17.4791,5.4915,72.8643,164.6461,0.0004665,0.95937126,359.9588,10/06.0/2023,2000,g  6.5,4.0
# From MPEC 2022-OB6
C/2021 T1 (Lemmon),e,40.3595,56.8457,51.5248,1574,0.0000158,0.99805727,0.0000,10/14.2328/2021,2000,g 12.5,4.0
# From MPEC 2023-A50
C/2021 T2 (Fuls),h,06/07.9560/2022,117.5402,223.2348,263.5982,1.000439,1.247479,2000,12.0,4.0
# From MPEC 2023-SQ0
C/2021 T4 (Lemmon),e,160.7772,257.8846,329.8224,15194,0.0000005,0.99990238,0.0000,07/31.5396/2023,2000,g  7.5,4.0
# From MPEC 2022-ED3
P/2021 U1 (Wierzchos),e,30.5522,246.8001,145.1181,8.528588,0.0395720,0.71305718,29.0788,10/06.0/2023,2000,g 14.5,4.0
# From MPEC 2022-L66
P/2021 U3 (Attard-Maury),e,69.9563,75.1043,335.2445,4.193864,0.1147579,0.54993555,81.6008,10/06.0/2023,2000,g 15.5,4.0
# From MPEC 2021-W31
C/2021 U4 (Leonard),e,152.8863,241.8084,237.3182,44.99628,0.0032654,0.96024762,2.1324,10/06.0/2023,2000,g 17.0,4.0
# From MPEC 2022-WQ9
C/2021 U5 (Catalina),e,39.0483,182.7489,321.4296,216.4913,0.0003094,0.98909151,0.0000,01/26.5942/2022,2000,g 13.0,4.0
# From MPEC 2022-CN4
C/2021 V1 (Rankin),e,71.4537,207.6663,195.1405,643.2130,0.0000604,0.99531305,0.0000,04/30.5073/2022,2000,g 13.0,4.0
# From MPEC 2023-KD6
P/2021 V2 (Fuls),e,12.6945,232.2771,259.8370,9.067186,0.0360990,0.61437242,9.2976,10/06.0/2023,2000,g 10.0,4.0
# From MPEC 2023-SQ0
C/2021 X1 (Maury-Attard),h,05/27.1842/2023,140.1010,10.5928,334.5686,1.000795,3.233350,2000,7.0,4.0
# From MPEC 2023-A50
A/2021 X2,h,07/08.0469/2022,137.1614,228.8215,193.2906,1.000748,2.994777,2000,16.0,2.0
# From MPEC 2023-N01
C/2021 Y1 (ATLAS),h,04/30.7206/2023,77.1915,244.7687,245.8237,1.000931,2.032435,2000,7.0,4.0
# From MPEC 2022-YN2
C/2022 A1 (Sarneczky),e,116.5188,285.5179,201.2279,348.1086,0.0001518,0.99639933,0.0000,01/31.0869/2022,2000,g 18.0,4.0
# From MPEC 2023-R20
C/2022 A2 (PANSTARRS),h,02/18.2732/2023,108.1369,171.5836,88.3729,1.000470,1.735393,2000,9.5,4.0
# From MPEC 2023-M14
C/2022 A3 (Lemmon-ATLAS),e,88.3425,325.4793,234.8480,880.5877,0.0000377,0.99579433,0.0000,09/28.8526/2023,2000,g 10.9,4.0
# From MPEC 2022-K19
P/2022 B1 (Wierzchos),e,10.9896,325.4535,148.8517,5.466361,0.0771181,0.65321893,45.3134,10/06.0/2023,2000,g 16.5,4.0
# From MPEC 2022-YB4
A/2022 B3,e,132.0518,286.1839,150.6913,792.5359,0.0000442,0.99533237,0.0000,01/17.4408/2022,2000,g 16.5,2.0
# From MPEC 2022-GA9
C/2022 B4 (Bok),e,20.0446,340.6314,152.9371,379.8172,0.0001332,0.99637170,0.0000,01/29.9498/2022,2000,g 21.0,4.0
# From MPEC 2023-J29
P/2022 BV9 (Lemmon),e,11.9320,337.3055,16.2787,4.362068,0.1081846,0.23457306,116.5122,10/06.0/2023,2000,g  9.5,4.0
# From MPEC 2023-J29
P/2022 C1 (PANSTARRS),e,4.7622,113.1289,9.3402,7.224308,0.0507586,0.44846532,35.5607,10/06.0/2023,2000,g 12.0,4.0
# From MPEC 2022-OB6
P/2022 C2 (PANSTARRS),e,9.9811,135.2619,89.2598,6.039541,0.0664046,0.44201161,28.2694,10/06.0/2023,2000,g 12.5,4.0
# From MPEC 2022-OB6
P/2022 C3 (PANSTARRS),e,12.8181,139.0458,93.9077,9.630382,0.0329791,0.54581114,15.2413,10/06.0/2023,2000,g 11.5,4.0
# From MPEC 2022-K19
P/2022 D1 (PANSTARRS),e,44.0779,47.9585,88.6686,7.402302,0.0489389,0.54734990,37.6317,10/06.0/2023,2000,g 12.5,4.0
# From MPEC 2022-K19
C/2022 D2 (Kowalski),e,22.6577,312.4378,177.7878,367.9059,0.0001397,0.99577603,0.0000,03/27.6151/2022,2000,g 17.0,4.0
# From MPEC 2023-M14
C/2022 E2 (ATLAS),h,09/14.0337/2024,137.1281,125.3699,41.6988,1.000786,3.666698,2000,9.0,4.0
# From MPEC 2023-SQ0
C/2022 E3 (ZTF),h,01/12.7710/2023,109.1685,302.5555,145.8131,1.000196,1.112271,2000,9.6,4.0
# From MPEC 2023-R20
C/2022 F1 (ATLAS),e,57.9760,350.6503,278.2876,5510,0.0000024,0.99891570,0.0000,08/05.2533/2022,2000,g  7.0,4.0
# From MPEC 2022-QD9
C/2022 F2 (NEOWISE),e,97.3097,58.7861,200.6214,24.08618,0.0083378,0.93408792,4.6822,10/06.0/2023,2000,g 14.5,4.0
# From MPEC 2023-J95
C/2022 H1 (PANSTARRS),e,49.8385,6.3442,246.1551,743.8398,0.0000486,0.98965271,0.0000,01/17.2434/2024,2000,g  6.0,4.0
# From MPEC 2022-VC5
C/2022 J1 (Maury-Attard),e,105.9457,280.7476,305.6693,47.62872,0.0029985,0.96631712,1.7810,10/06.0/2023,2000,g 14.9,4.0
# From MPEC 2023-M14
C/2022 J2 (Bok),e,149.1283,252.6204,133.1031,93.27630,0.0010941,0.98041705,0.0000,10/27.1077/2022,2000,g  9.0,4.0
# From MPEC 2023-SQ0
C/2022 JK5 (PANSTARRS),e,16.8309,59.6506,247.1750,43.27048,0.0034627,0.93790038,0.5545,10/06.0/2023,2000,g 11.4,4.0
# From MPEC 2022-ST7
